[{"OBJECT_NAME":"STARLINK-36482","OBJECT_ID":"2026-002E","EPOCH":"2026-03-09T01:30:09.880704","MEAN_MOTION":15.27577953,"ECCENTRICITY":0.00013602,"INCLINATION":43.0008,"RA_OF_ASC_NODE":328.752,"ARG_OF_PERICENTER":281.0534,"MEAN_ANOMALY":79.0165,"EPHEMERIS_TYPE":0,"CLASSIFICATION_TYPE":"U","NORAD_CAT_ID":67309,"ELEMENT_SET_NO":999,"REV_AT_EPOCH":1098,"BSTAR":0.0015647971,"MEAN_MOTION_DOT":0.00043047,"MEAN_MOTION_DDOT":0},{"OBJECT_NAME":"OBJECT D","OBJECT_ID":"2024-018D","EPOCH":"2026-03-09T19:55:21.548928","MEAN_MOTION":14.55118189,"ECCENTRICITY":0.03718814,"INCLINATION":58.6682,"RA_OF_ASC_NODE":179.3794,"ARG_OF_PERICENTER":4.8806,"MEAN_ANOMALY":355.5692,"EPHEMERIS_TYPE":0,"CLASSIFICATION_TYPE":"U","NORAD_CAT_ID":58852,"ELEMENT_SET_NO":999,"REV_AT_EPOCH":11155,"BSTAR":0.00065583894,"MEAN_MOTION_DOT":7.104e-5,"MEAN_MOTION_DDOT":0}]
